[{"OBJECT_NAME":"ONEWEB-0673","OBJECT_ID":"2023-029AN","EPOCH":"2025-08-25T10:19:22.483776","MEAN_MOTION":13.19727361,"ECCENTRICITY":0.0001636,"INCLINATION":87.9277,"RA_OF_ASC_NODE":3.7477,"ARG_OF_PERICENTER":94.6381,"MEAN_ANOMALY":265.4939,"EPHEMERIS_TYPE":0,"CLASSIFICATION_TYPE":"U","NORAD_CAT_ID":55832,"ELEMENT_SET_NO":999,"REV_AT_EPOCH":11989,"BSTAR":8.2482443e-5,"MEAN_MOTION_DOT":4.6e-7,"MEAN_MOTION_DDOT":0},{"OBJECT_NAME":"ONEWEB-0674","OBJECT_ID":"2023-029AP","EPOCH":"2025-08-25T07:27:29.375424","MEAN_MOTION":13.14503844,"ECCENTRICITY":0.00022445,"INCLINATION":87.9099,"RA_OF_ASC_NODE":348.6263,"ARG_OF_PERICENTER":90.868,"MEAN_ANOMALY":269.2706,"EPHEMERIS_TYPE":0,"CLASSIFICATION_TYPE":"U","NORAD_CAT_ID":55833,"ELEMENT_SET_NO":999,"REV_AT_EPOCH":12054,"BSTAR":0.00054931018,"MEAN_MOTION_DOT":2.16e-6,"MEAN_MOTION_DDOT":0},{"OBJECT_NAME":"ONEWEB-0675","OBJECT_ID":"2023-029AQ","EPOCH":"2025-08-25T08:52:57.012384","MEAN_MOTION":13.19727944,"ECCENTRICITY":0.00016252,"INCLINATION":87.9268,"RA_OF_ASC_NODE":3.8054,"ARG_OF_PERICENTER":107.0369,"MEAN_ANOMALY":253.0942,"EPHEMERIS_TYPE":0,"CLASSIFICATION_TYPE":"U","NORAD_CAT_ID":55834,"ELEMENT_SET_NO":999,"REV_AT_EPOCH":11990,"BSTAR":0.00024086863,"MEAN_MOTION_DOT":1.09e-6,"MEAN_MOTION_DDOT":0},{"OBJECT_NAME":"ONEWEB-0720","OBJECT_ID":"2023-029AR","EPOCH":"2025-08-25T10:30:46.444320","MEAN_MOTION":13.19725472,"ECCENTRICITY":0.00016453,"INCLINATION":87.9266,"RA_OF_ASC_NODE":3.789,"ARG_OF_PERICENTER":85.6297,"MEAN_ANOMALY":274.5024,"EPHEMERIS_TYPE":0,"CLASSIFICATION_TYPE":"U","NORAD_CAT_ID":55835,"ELEMENT_SET_NO":999,"REV_AT_EPOCH":11983,"BSTAR":-3.2441632e-5,"MEAN_MOTION_DOT":0,"MEAN_MOTION_DDOT":0},{"OBJECT_NAME":"ONEWEB-0537","OBJECT_ID":"2023-043A","EPOCH":"2025-08-25T13:35:39.699744","MEAN_MOTION":13.16594834,"ECCENTRICITY":0.00019592,"INCLINATION":87.9016,"RA_OF_ASC_NODE":287.688,"ARG_OF_PERICENTER":102.0222,"MEAN_ANOMALY":258.1129,"EPHEMERIS_TYPE":0,"CLASSIFICATION_TYPE":"U","NORAD_CAT_ID":56046,"ELEMENT_SET_NO":999,"REV_AT_EPOCH":12006,"BSTAR":4.1871447e-5,"MEAN_MOTION_DOT":2.9e-7,"MEAN_MOTION_DDOT":0},{"OBJECT_NAME":"ONEWEB-0538","OBJECT_ID":"2023-043B","EPOCH":"2025-08-25T13:26:31.867584","MEAN_MOTION":13.16593597,"ECCENTRICITY":0.00016986,"INCLINATION":87.9008,"RA_OF_ASC_NODE":287.7029,"ARG_OF_PERICENTER":98.0565,"MEAN_ANOMALY":262.0758,"EPHEMERIS_TYPE":0,"CLASSIFICATION_TYPE":"U","NORAD_CAT_ID":56047,"ELEMENT_SET_NO":999,"REV_AT_EPOCH":12007,"BSTAR":-0.00036972837,"MEAN_MOTION_DOT":-1.28e-6,"MEAN_MOTION_DDOT":0},{"OBJECT_NAME":"ONEWEB-0546","OBJECT_ID":"2023-043C","EPOCH":"2025-08-25T13:08:17.260800","MEAN_MOTION":13.16593317,"ECCENTRICITY":0.0002223,"INCLINATION":87.902,"RA_OF_ASC_NODE":287.6855,"ARG_OF_PERICENTER":113.5492,"MEAN_ANOMALY":246.5872,"EPHEMERIS_TYPE":0,"CLASSIFICATION_TYPE":"U","NORAD_CAT_ID":56048,"ELEMENT_SET_NO":999,"REV_AT_EPOCH":12006,"BSTAR":-0.00036457505,"MEAN_MOTION_DOT":-1.27e-6,"MEAN_MOTION_DDOT":0},{"OBJECT_NAME":"ONEWEB-0547","OBJECT_ID":"2023-043D","EPOCH":"2025-08-25T04:49:09.761088","MEAN_MOTION":13.21834907,"ECCENTRICITY":0.0001803,"INCLINATION":87.9239,"RA_OF_ASC_NODE":303.0367,"ARG_OF_PERICENTER":95.2772,"MEAN_ANOMALY":264.8567,"EPHEMERIS_TYPE":0,"CLASSIFICATION_TYPE":"U","NORAD_CAT_ID":56049,"ELEMENT_SET_NO":999,"REV_AT_EPOCH":11912,"BSTAR":0.0020946155,"MEAN_MOTION_DOT":8.78e-6,"MEAN_MOTION_DDOT":0},{"OBJECT_NAME":"ONEWEB-0548","OBJECT_ID":"2023-043E","EPOCH":"2025-08-25T10:05:55.193280","MEAN_MOTION":13.16592637,"ECCENTRICITY":0.00024365,"INCLINATION":87.9003,"RA_OF_ASC_NODE":287.7373,"ARG_OF_PERICENTER":89.9143,"MEAN_ANOMALY":270.2268,"EPHEMERIS_TYPE":0,"CLASSIFICATION_TYPE":"U","NORAD_CAT_ID":56050,"ELEMENT_SET_NO":999,"REV_AT_EPOCH":12004,"BSTAR":0.00019989792,"MEAN_MOTION_DOT":8.9e-7,"MEAN_MOTION_DDOT":0},{"OBJECT_NAME":"ONEWEB-0549","OBJECT_ID":"2023-043F","EPOCH":"2025-08-25T13:41:43.791072","MEAN_MOTION":13.21816657,"ECCENTRICITY":0.00023027,"INCLINATION":87.9231,"RA_OF_ASC_NODE":302.9788,"ARG_OF_PERICENTER":90.0739,"MEAN_ANOMALY":270.0659,"EPHEMERIS_TYPE":0,"CLASSIFICATION_TYPE":"U","NORAD_CAT_ID":56051,"ELEMENT_SET_NO":999,"REV_AT_EPOCH":11917,"BSTAR":-0.0025093615,"MEAN_MOTION_DOT":-1.023e-5,"MEAN_MOTION_DDOT":0},{"OBJECT_NAME":"ONEWEB-0550","OBJECT_ID":"2023-043G","EPOCH":"2025-08-25T13:23:31.585344","MEAN_MOTION":13.21827428,"ECCENTRICITY":0.0002135,"INCLINATION":87.9245,"RA_OF_ASC_NODE":302.9744,"ARG_OF_PERICENTER":97.7208,"MEAN_ANOMALY":262.4168,"EPHEMERIS_TYPE":0,"CLASSIFICATION_TYPE":"U","NORAD_CAT_ID":56052,"ELEMENT_SET_NO":999,"REV_AT_EPOCH":11917,"BSTAR":-0.0001284073,"MEAN_MOTION_DOT":-4.0e-7,"MEAN_MOTION_DDOT":0},{"OBJECT_NAME":"ONEWEB-0551","OBJECT_ID":"2023-043H","EPOCH":"2025-08-25T14:18:54.429120","MEAN_MOTION":13.15548825,"ECCENTRICITY":0.00017421,"INCLINATION":87.9068,"RA_OF_ASC_NODE":318.2059,"ARG_OF_PERICENTER":93.6517,"MEAN_ANOMALY":266.4813,"EPHEMERIS_TYPE":0,"CLASSIFICATION_TYPE":"U","NORAD_CAT_ID":56053,"ELEMENT_SET_NO":999,"REV_AT_EPOCH":11753,"BSTAR":0.00053536499,"MEAN_MOTION_DOT":2.14e-6,"MEAN_MOTION_DDOT":0},{"OBJECT_NAME":"ONEWEB-0552","OBJECT_ID":"2023-043J","EPOCH":"2025-08-25T13:14:27.561696","MEAN_MOTION":13.21824899,"ECCENTRICITY":0.00018708,"INCLINATION":87.9244,"RA_OF_ASC_NODE":302.9846,"ARG_OF_PERICENTER":88.4217,"MEAN_ANOMALY":271.7131,"EPHEMERIS_TYPE":0,"CLASSIFICATION_TYPE":"U","NORAD_CAT_ID":56054,"ELEMENT_SET_NO":999,"REV_AT_EPOCH":11917,"BSTAR":-0.00010741145,"MEAN_MOTION_DOT":-3.1e-7,"MEAN_MOTION_DDOT":0},{"OBJECT_NAME":"ONEWEB-0553","OBJECT_ID":"2023-043K","EPOCH":"2025-08-25T13:17:24.971136","MEAN_MOTION":13.1659305,"ECCENTRICITY":0.00022246,"INCLINATION":87.901,"RA_OF_ASC_NODE":287.7029,"ARG_OF_PERICENTER":104.1916,"MEAN_ANOMALY":255.9462,"EPHEMERIS_TYPE":0,"CLASSIFICATION_TYPE":"U","NORAD_CAT_ID":56055,"ELEMENT_SET_NO":999,"REV_AT_EPOCH":12007,"BSTAR":-0.00033314215,"MEAN_MOTION_DOT":-1.14e-6,"MEAN_MOTION_DDOT":0},{"OBJECT_NAME":"ONEWEB-0554","OBJECT_ID":"2023-043L","EPOCH":"2025-08-25T14:48:35.450208","MEAN_MOTION":13.16592331,"ECCENTRICITY":0.00022405,"INCLINATION":87.9005,"RA_OF_ASC_NODE":287.7153,"ARG_OF_PERICENTER":93.1,"MEAN_ANOMALY":267.0387,"EPHEMERIS_TYPE":0,"CLASSIFICATION_TYPE":"U","NORAD_CAT_ID":56056,"ELEMENT_SET_NO":999,"REV_AT_EPOCH":12006,"BSTAR":-0.00016982306,"MEAN_MOTION_DOT":-5.2e-7,"MEAN_MOTION_DDOT":0},{"OBJECT_NAME":"ONEWEB-0555","OBJECT_ID":"2023-043M","EPOCH":"2025-08-25T12:04:27.719904","MEAN_MOTION":13.16594447,"ECCENTRICITY":0.00022696,"INCLINATION":87.901,"RA_OF_ASC_NODE":287.7073,"ARG_OF_PERICENTER":109.0903,"MEAN_ANOMALY":251.0474,"EPHEMERIS_TYPE":0,"CLASSIFICATION_TYPE":"U","NORAD_CAT_ID":56057,"ELEMENT_SET_NO":999,"REV_AT_EPOCH":12005,"BSTAR":8.047052e-6,"MEAN_MOTION_DOT":1.6e-7,"MEAN_MOTION_DDOT":0},{"OBJECT_NAME":"ONEWEB-0557","OBJECT_ID":"2023-043N","EPOCH":"2025-08-25T14:14:23.903808","MEAN_MOTION":13.16594117,"ECCENTRICITY":0.00032649,"INCLINATION":87.9005,"RA_OF_ASC_NODE":287.7089,"ARG_OF_PERICENTER":99.7459,"MEAN_ANOMALY":260.4041,"EPHEMERIS_TYPE":0,"CLASSIFICATION_TYPE":"U","NORAD_CAT_ID":56058,"ELEMENT_SET_NO":999,"REV_AT_EPOCH":12006,"BSTAR":-0.00014599646,"MEAN_MOTION_DOT":-4.3e-7,"MEAN_MOTION_DDOT":0},{"OBJECT_NAME":"ONEWEB-0558","OBJECT_ID":"2023-043P","EPOCH":"2025-08-25T05:49:21.100512","MEAN_MOTION":13.21827289,"ECCENTRICITY":0.00015156,"INCLINATION":87.9244,"RA_OF_ASC_NODE":303.0418,"ARG_OF_PERICENTER":91.1741,"MEAN_ANOMALY":268.9566,"EPHEMERIS_TYPE":0,"CLASSIFICATION_TYPE":"U","NORAD_CAT_ID":56059,"ELEMENT_SET_NO":999,"REV_AT_EPOCH":11914,"BSTAR":-0.00019323708,"MEAN_MOTION_DOT":-6.7e-7,"MEAN_MOTION_DDOT":0},{"OBJECT_NAME":"ONEWEB-0559","OBJECT_ID":"2023-043Q","EPOCH":"2025-08-25T14:38:29.018976","MEAN_MOTION":13.21825013,"ECCENTRICITY":0.00018721,"INCLINATION":87.9243,"RA_OF_ASC_NODE":302.9608,"ARG_OF_PERICENTER":85.7727,"MEAN_ANOMALY":274.3621,"EPHEMERIS_TYPE":0,"CLASSIFICATION_TYPE":"U","NORAD_CAT_ID":56060,"ELEMENT_SET_NO":999,"REV_AT_EPOCH":11920,"BSTAR":3.2912109e-5,"MEAN_MOTION_DOT":2.7e-7,"MEAN_MOTION_DDOT":0},{"OBJECT_NAME":"ONEWEB-0566","OBJECT_ID":"2023-043R","EPOCH":"2025-08-25T14:29:23.839296","MEAN_MOTION":13.21824243,"ECCENTRICITY":0.00017475,"INCLINATION":87.9243,"RA_OF_ASC_NODE":302.9598,"ARG_OF_PERICENTER":89.7342,"MEAN_ANOMALY":270.3992,"EPHEMERIS_TYPE":0,"CLASSIFICATION_TYPE":"U","NORAD_CAT_ID":56061,"ELEMENT_SET_NO":999,"REV_AT_EPOCH":11918,"BSTAR":0.00024970994,"MEAN_MOTION_DOT":1.16e-6,"MEAN_MOTION_DDOT":0},{"OBJECT_NAME":"ONEWEB-0568","OBJECT_ID":"2023-043S","EPOCH":"2025-08-25T14:39:29.420352","MEAN_MOTION":13.16593821,"ECCENTRICITY":0.00021025,"INCLINATION":87.9018,"RA_OF_ASC_NODE":287.6825,"ARG_OF_PERICENTER":103.415,"MEAN_ANOMALY":256.7216,"EPHEMERIS_TYPE":0,"CLASSIFICATION_TYPE":"U","NORAD_CAT_ID":56062,"ELEMENT_SET_NO":999,"REV_AT_EPOCH":12008,"BSTAR":-0.00022134287,"MEAN_MOTION_DOT":-7.2e-7,"MEAN_MOTION_DDOT":0},{"OBJECT_NAME":"ONEWEB-0574","OBJECT_ID":"2023-043T","EPOCH":"2025-08-25T14:20:19.041504","MEAN_MOTION":13.21824248,"ECCENTRICITY":0.0002183,"INCLINATION":87.9245,"RA_OF_ASC_NODE":302.9496,"ARG_OF_PERICENTER":95.9977,"MEAN_ANOMALY":264.1405,"EPHEMERIS_TYPE":0,"CLASSIFICATION_TYPE":"U","NORAD_CAT_ID":56063,"ELEMENT_SET_NO":999,"REV_AT_EPOCH":11922,"BSTAR":5.7088361e-5,"MEAN_MOTION_DOT":3.7e-7,"MEAN_MOTION_DDOT":0},{"OBJECT_NAME":"ONEWEB-0575","OBJECT_ID":"2023-043U","EPOCH":"2025-08-25T14:30:22.031424","MEAN_MOTION":13.16593911,"ECCENTRICITY":0.00024239,"INCLINATION":87.9013,"RA_OF_ASC_NODE":287.6891,"ARG_OF_PERICENTER":98.0619,"MEAN_ANOMALY":262.0787,"EPHEMERIS_TYPE":0,"CLASSIFICATION_TYPE":"U","NORAD_CAT_ID":56064,"ELEMENT_SET_NO":999,"REV_AT_EPOCH":12007,"BSTAR":0.0001625373,"MEAN_MOTION_DOT":7.5e-7,"MEAN_MOTION_DDOT":0}]
